[{"OBJECT_NAME":"JACK K","OBJECT_ID":"2025-274K","EPOCH":"2026-03-09T20:40:45.937920","MEAN_MOTION":14.9338967,"ECCENTRICITY":0.00133932,"INCLINATION":97.7436,"RA_OF_ASC_NODE":359.6914,"ARG_OF_PERICENTER":355.3892,"MEAN_ANOMALY":4.7202,"EPHEMERIS_TYPE":0,"CLASSIFICATION_TYPE":"U","NORAD_CAT_ID":66659,"ELEMENT_SET_NO":999,"REV_AT_EPOCH":1540,"BSTAR":0.00031467598,"MEAN_MOTION_DOT":3.252e-5,"MEAN_MOTION_DDOT":0},{"OBJECT_NAME":"COSMOS 2251 DEB","OBJECT_ID":"1993-036APC","EPOCH":"2026-03-07T07:06:21.229920","MEAN_MOTION":14.8796969,"ECCENTRICITY":0.0085938,"INCLINATION":74.0103,"RA_OF_ASC_NODE":270.9975,"ARG_OF_PERICENTER":352.1798,"MEAN_ANOMALY":7.8035,"EPHEMERIS_TYPE":0,"CLASSIFICATION_TYPE":"U","NORAD_CAT_ID":35661,"ELEMENT_SET_NO":999,"REV_AT_EPOCH":89125,"BSTAR":0.00081888,"MEAN_MOTION_DOT":8.012e-5,"MEAN_MOTION_DDOT":0}]
